{
  "norad_id": 64511,
  "name": "KUIPER-00051",
  "history": [
    {
      "epoch": "2026-03-28T20:24:52.187328Z",
      "apogee_km": 630.356072193963,
      "perigee_km": 628.6665281887863,
      "latitude_deg": 4.416993285903942e-05,
      "longitude_deg": 8.394157759301795,
      "height_km": 630.2584710348508,
      "semi_major_axis_km": 7007.648300191374,
      "eccentricity": 0.00012055,
      "inclination_deg": 51.9001,
      "raan_deg": 140.8767,
      "arg_perigee_deg": 90.1332,
      "mean_anomaly_deg": 269.9769,
      "mean_motion_rev_day": 14.79940707
    },
    {
      "epoch": "2026-03-29T02:53:50.270208Z",
      "apogee_km": 630.3056219921555,
      "perigee_km": 628.6980696409255,
      "latitude_deg": 2.198480134347757e-05,
      "longitude_deg": -90.308810706868,
      "height_km": 630.2361799377164,
      "semi_major_axis_km": 7007.63884581654,
      "eccentricity": 0.0001147,
      "inclination_deg": 51.8999,
      "raan_deg": 139.682,
      "arg_perigee_deg": 89.2205,
      "mean_anomaly_deg": 270.8889,
      "mean_motion_rev_day": 14.79943702
    },
    {
      "epoch": "2026-03-29T09:22:48.294336Z",
      "apogee_km": 630.3025238222081,
      "perigee_km": 628.6724102186909,
      "latitude_deg": 3.30584510723264e-05,
      "longitude_deg": 170.9887923679511,
      "height_km": 630.2297252352645,
      "semi_major_axis_km": 7007.62446702045,
      "eccentricity": 0.00011631,
      "inclination_deg": 51.8999,
      "raan_deg": 138.4876,
      "arg_perigee_deg": 89.7899,
      "mean_anomaly_deg": 270.3197,
      "mean_motion_rev_day": 14.79948257
    },
    {
      "epoch": "2026-03-30T09:41:27.576096Z",
      "apogee_km": 630.2982897049096,
      "perigee_km": 628.7858924034781,
      "latitude_deg": 7.153650010492628e-06,
      "longitude_deg": 160.84808527999147,
      "height_km": 630.2696382538139,
      "semi_major_axis_km": 7007.679091054193,
      "eccentricity": 0.00010791,
      "inclination_deg": 51.8997,
      "raan_deg": 134.009,
      "arg_perigee_deg": 88.652,
      "mean_anomaly_deg": 271.4566,
      "mean_motion_rev_day": 14.79930953
    },
    {
      "epoch": "2026-03-30T19:24:55.085760Z",
      "apogee_km": 630.2897011328369,
      "perigee_km": 628.7854337101935,
      "latitude_deg": -2.1393613974349308e-05,
      "longitude_deg": 12.792276736844151,
      "height_km": 630.2726481595693,
      "semi_major_axis_km": 7007.674567421514,
      "eccentricity": 0.00010733,
      "inclination_deg": 51.8997,
      "raan_deg": 132.2172,
      "arg_perigee_deg": 89.2178,
      "mean_anomaly_deg": 270.8907,
      "mean_motion_rev_day": 14.79932386
    },
    {
      "epoch": "2026-03-31T06:45:37.265184Z",
      "apogee_km": 630.2603689973339,
      "perigee_km": 628.8194504711546,
      "latitude_deg": -2.741401277541669e-06,
      "longitude_deg": -159.93988034189326,
      "height_km": 630.2611438845252,
      "semi_major_axis_km": 7007.676909734244,
      "eccentricity": 0.00010281,
      "inclination_deg": 51.8999,
      "raan_deg": 130.1267,
      "arg_perigee_deg": 88.0756,
      "mean_anomaly_deg": 272.0324,
      "mean_motion_rev_day": 14.79931644
    },
    {
      "epoch": "2026-04-01T07:04:15.725280Z",
      "apogee_km": 630.2486929999595,
      "perigee_km": 628.8009100717627,
      "latitude_deg": -4.899095021070786e-05,
      "longitude_deg": -170.07816972660424,
      "height_km": 630.2496263469648,
      "semi_major_axis_km": 7007.661801535861,
      "eccentricity": 0.0001033,
      "inclination_deg": 51.9,
      "raan_deg": 125.6471,
      "arg_perigee_deg": 88.3681,
      "mean_anomaly_deg": 271.7399,
      "mean_motion_rev_day": 14.7993643
    },
    {
      "epoch": "2026-04-02T18:43:36.203232Z",
      "apogee_km": 630.1898978529352,
      "perigee_km": 628.901885737424,
      "latitude_deg": -2.5378721141547773e-05,
      "longitude_deg": 7.052898215378056,
      "height_km": 630.2447835895824,
      "semi_major_axis_km": 7007.68289179518,
      "eccentricity": 9.19e-05,
      "inclination_deg": 51.9003,
      "raan_deg": 119.0778,
      "arg_perigee_deg": 85.8391,
      "mean_anomaly_deg": 274.2676,
      "mean_motion_rev_day": 14.79929749
    },
    {
      "epoch": "2026-04-02T18:43:36.204096Z",
      "apogee_km": 630.1897576992787,
      "perigee_km": 628.9020258910814,
      "latitude_deg": -2.356931062597362e-05,
      "longitude_deg": 7.052896016568828,
      "height_km": 630.2447937584132,
      "semi_major_axis_km": 7007.68289179518,
      "eccentricity": 9.188e-05,
      "inclination_deg": 51.9003,
      "raan_deg": 119.0778,
      "arg_perigee_deg": 85.8391,
      "mean_anomaly_deg": 274.2676,
      "mean_motion_rev_day": 14.79929749
    },
    {
      "epoch": "2026-04-03T07:41:32.845056Z",
      "apogee_km": 630.2072519998164,
      "perigee_km": 628.8715888740817,
      "latitude_deg": -3.1332784219077634e-05,
      "longitude_deg": 169.64540233384537,
      "height_km": 630.2555707944746,
      "semi_major_axis_km": 7007.676420436949,
      "eccentricity": 9.53e-05,
      "inclination_deg": 51.9005,
      "raan_deg": 116.6888,
      "arg_perigee_deg": 87.473,
      "mean_anomaly_deg": 272.6341,
      "mean_motion_rev_day": 14.79931799
    },
    {
      "epoch": "2026-04-04T11:14:40.853760Z",
      "apogee_km": 630.1507060082304,
      "perigee_km": 628.9132918164014,
      "latitude_deg": -3.388592568376898e-05,
      "longitude_deg": 110.15360058685947,
      "height_km": 630.1900951632883,
      "semi_major_axis_km": 7007.668998912315,
      "eccentricity": 8.829e-05,
      "inclination_deg": 51.8997,
      "raan_deg": 111.6119,
      "arg_perigee_deg": 81.868,
      "mean_anomaly_deg": 278.2382,
      "mean_motion_rev_day": 14.7993415
    },
    {
      "epoch": "2026-04-05T09:56:04.641504Z",
      "apogee_km": 630.0973406513522,
      "perigee_km": 628.9301463435158,
      "latitude_deg": -3.677025902018231e-05,
      "longitude_deg": 124.69143872382536,
      "height_km": 630.1656987248821,
      "semi_major_axis_km": 7007.650743497434,
      "eccentricity": 8.328e-05,
      "inclination_deg": 51.8995,
      "raan_deg": 107.4307,
      "arg_perigee_deg": 80.76,
      "mean_anomaly_deg": 279.3456,
      "mean_motion_rev_day": 14.79939933
    },
    {
      "epoch": "2026-04-05T18:02:17.331936Z",
      "apogee_km": 630.1029818723127,
      "perigee_km": 628.9102809262495,
      "latitude_deg": 2.818378777097106e-05,
      "longitude_deg": 1.3126120227778018,
      "height_km": 630.1609406288529,
      "semi_major_axis_km": 7007.643631399281,
      "eccentricity": 8.51e-05,
      "inclination_deg": 51.8999,
      "raan_deg": 105.9375,
      "arg_perigee_deg": 81.1873,
      "mean_anomaly_deg": 278.9186,
      "mean_motion_rev_day": 14.79942186
    },
    {
      "epoch": "2026-04-06T00:31:15.489120Z",
      "apogee_km": 630.1190934955102,
      "perigee_km": 628.8898130317784,
      "latitude_deg": 3.3127065473698974e-06,
      "longitude_deg": -97.39026948781233,
      "height_km": 630.171360074699,
      "semi_major_axis_km": 7007.641453263644,
      "eccentricity": 8.771e-05,
      "inclination_deg": 51.8996,
      "raan_deg": 104.7432,
      "arg_perigee_deg": 82.6435,
      "mean_anomaly_deg": 277.4627,
      "mean_motion_rev_day": 14.79942876
    },
    {
      "epoch": "2026-04-07T04:04:22.270080Z",
      "apogee_km": 630.1063963894885,
      "perigee_km": 628.8614224587209,
      "latitude_deg": -6.254585805183623e-05,
      "longitude_deg": -156.87669342548085,
      "height_km": 630.1823200900568,
      "semi_major_axis_km": 7007.620909424105,
      "eccentricity": 8.883e-05,
      "inclination_deg": 51.8999,
      "raan_deg": 99.6666,
      "arg_perigee_deg": 85.6497,
      "mean_anomaly_deg": 274.4566,
      "mean_motion_rev_day": 14.79949384
    },
    {
      "epoch": "2026-04-08T09:14:43.200672Z",
      "apogee_km": 630.121988023644,
      "perigee_km": 628.8153498706106,
      "latitude_deg": -2.061729745953808e-05,
      "longitude_deg": 118.96305363687566,
      "height_km": 630.1315929815679,
      "semi_major_axis_km": 7007.605668947127,
      "eccentricity": 9.323e-05,
      "inclination_deg": 51.8999,
      "raan_deg": 94.2916,
      "arg_perigee_deg": 82.7321,
      "mean_anomaly_deg": 277.3747,
      "mean_motion_rev_day": 14.79954212
    },
    {
      "epoch": "2026-04-09T06:19:01.720704Z",
      "apogee_km": 631.6147928991995,
      "perigee_km": 628.7723541851828,
      "latitude_deg": 5.314659574319374e-06,
      "longitude_deg": 158.13921586342747,
      "height_km": 632.329726054187,
      "semi_major_axis_km": 7008.330573542191,
      "eccentricity": 0.00020279,
      "inclination_deg": 51.9,
      "raan_deg": 90.4103,
      "arg_perigee_deg": 167.9795,
      "mean_anomaly_deg": 192.1216,
      "mean_motion_rev_day": 14.797246
    },
    {
      "epoch": "2026-04-14T20:00:01.999008Z",
      "apogee_km": 641.668665918558,
      "perigee_km": 639.417073416369,
      "latitude_deg": 46.780020739864916,
      "longitude_deg": 46.796608390842735,
      "height_km": 644.9523001342521,
      "semi_major_axis_km": 7018.679869667463,
      "eccentricity": 0.0001604,
      "inclination_deg": 51.8995,
      "raan_deg": 65.8971,
      "arg_perigee_deg": 172.5144,
      "mean_anomaly_deg": 300.0057,
      "mean_motion_rev_day": 14.76452946
    }
  ]
}